{"type": "FeatureCollection", "features": [ {"type": "Feature", "properties": {"norad_id": 30048, "name": "FENGYUN 1C DEB", "group": "fengyun-1c-debris", "lat": 66.78851270985786, "lon": 63.459032285, "alt_km": 987.5064664216734, "timestamp": "2025-12-23T16:57:12.625593+00:00", "meta": {"OBJECT_NAME": "FENGYUN 1C DEB", "OBJECT_ID": "1999-025NZ", "EPOCH": "2025-12-22T21:22:25.169376", "MEAN_MOTION": 13.7989848, "ECCENTRICITY": 0.0186387, "INCLINATION": 98.6659, "RA_OF_ASC_NODE": 221.8795, "ARG_OF_PERICENTER": 217.3944, "MEAN_ANOMALY": 165.7353, "EPHEMERIS_TYPE": 0, "CLASSIFICATION_TYPE": "U", "NORAD_CAT_ID": 30048, "ELEMENT_SET_NO": 999, "REV_AT_EPOCH": 95266, "BSTAR": 0.00019858, "MEAN_MOTION_DOT": 1.95e-06, "MEAN_MOTION_DDOT": 0}, "tle": {"line1": "1 30048U 99025NZ  25356.89056909  .00000195  00000+0  19858-3 0  9995", "line2": "2 30048  98.6659 221.8795 0186387 217.3944 165.7353 13.79898480952662"}}, "geometry": {"type": "Point", "coordinates": [63.459032285, 66.78851270985786]}}, {"type": "Feature", "properties": {"norad_id": 30050, "name": "FENGYUN 1C DEB", "group": "fengyun-1c-debris", "lat": -59.93129060552163, "lon": -33.157021469743114, "alt_km": 888.1409366052594, "timestamp": "2025-12-23T16:57:12.625603+00:00", "meta": {"OBJECT_NAME": "FENGYUN 1C DEB", "OBJECT_ID": "1999-025PB", "EPOCH": "2025-12-22T20:41:07.283904", "MEAN_MOTION": 13.85078003, "ECCENTRICITY": 0.01711157, "INCLINATION": 96.819, "RA_OF_ASC_NODE": 314.3004, "ARG_OF_PERICENTER": 1.471, "MEAN_ANOMALY": 51.0894, "EPHEMERIS_TYPE": 0, "CLASSIFICATION_TYPE": "U", "NORAD_CAT_ID": 30050, "ELEMENT_SET_NO": 999, "REV_AT_EPOCH": 95342, "BSTAR": 0.0010779647, "MEAN_MOTION_DOT": 1.342e-05, "MEAN_MOTION_DDOT": 0}, "tle": {"line1": "1 30050U 99025PB  25356.86188986  .00001342  00000+0  10780-2 0  9995", "line2": "2 30050  96.8190 314.3004 0171115   1.4710  51.0894 13.85078003953422"}}, "geometry": {"type": "Point", "coordinates": [-33.157021469743114, -59.93129060552163]}}, {"type": "Feature", "properties": {"norad_id": 30052, "name": "FENGYUN 1C DEB", "group": "fengyun-1c-debris", "lat": 76.75989004317465, "lon": -112.87018108284387, "alt_km": 1027.6108749996238, "timestamp": "2025-12-23T16:57:12.625614+00:00", "meta": {"OBJECT_NAME": "FENGYUN 1C DEB", "OBJECT_ID": "1999-025PD", "EPOCH": "2025-12-22T23:20:49.818912", "MEAN_MOTION": 13.72971915, "ECCENTRICITY": 0.02893153, "INCLINATION": 99.2983, "RA_OF_ASC_NODE": 22.2871, "ARG_OF_PERICENTER": 205.4332, "MEAN_ANOMALY": 233.214, "EPHEMERIS_TYPE": 0, "CLASSIFICATION_TYPE": "U", "NORAD_CAT_ID": 30052, "ELEMENT_SET_NO": 999, "REV_AT_EPOCH": 94695, "BSTAR": 0.00042366638, "MEAN_MOTION_DOT": 4.84e-06, "MEAN_MOTION_DDOT": 0}, "tle": {"line1": "1 30052U 99025PD  25356.97279883  .00000484  00000+0  42367-3 0  9999", "line2": "2 30052  99.2983  22.2871 0289315 205.4332 233.2140 13.72971915946954"}}, "geometry": {"type": "Point", "coordinates": [-112.87018108284387, 76.75989004317465]}}, {"type": "Feature", "properties": {"norad_id": 30053, "name": "FENGYUN 1C DEB", "group": "fengyun-1c-debris", "lat": 57.58888925739544, "lon": 156.3076821250358, "alt_km": 986.9261248751809, "timestamp": "2025-12-23T16:57:12.625625+00:00", "meta": {"OBJECT_NAME": "FENGYUN 1C DEB", "OBJECT_ID": "1999-025PE", "EPOCH": "2025-12-23T05:30:15.737184", "MEAN_MOTION": 13.94195494, "ECCENTRICITY": 0.03314005, "INCLINATION": 98.5759, "RA_OF_ASC_NODE": 169.6133, "ARG_OF_PERICENTER": 309.252, "MEAN_ANOMALY": 232.8186, "EPHEMERIS_TYPE": 0, "CLASSIFICATION_TYPE": "U", "NORAD_CAT_ID": 30053, "ELEMENT_SET_NO": 999, "REV_AT_EPOCH": 95132, "BSTAR": 0.0015709617, "MEAN_MOTION_DOT": 3.247e-05, "MEAN_MOTION_DDOT": 0}, "tle": {"line1": "1 30053U 99025PE  25357.22934881  .00003247  00000+0  15710-2 0  9996", "line2": "2 30053  98.5759 169.6133 0331400 309.2520 232.8186 13.94195494951326"}}, "geometry": {"type": "Point", "coordinates": [156.3076821250358, 57.58888925739544]}}, {"type": "Feature", "properties": {"norad_id": 30054, "name": "FENGYUN 1C DEB", "group": "fengyun-1c-debris", "lat": -80.10364715070634, "lon": 100.82696211133096, "alt_km": 912.3398154731576, "timestamp": "2025-12-23T16:57:12.625635+00:00", "meta": {"OBJECT_NAME": "FENGYUN 1C DEB", "OBJECT_ID": "1999-025PF", "EPOCH": "2025-12-23T01:40:34.627008", "MEAN_MOTION": 13.69877012, "ECCENTRICITY": 0.02754295, "INCLINATION": 99.3704, "RA_OF_ASC_NODE": 29.0434, "ARG_OF_PERICENTER": 338.388, "MEAN_ANOMALY": 40.0665, "EPHEMERIS_TYPE": 0, "CLASSIFICATION_TYPE": "U", "NORAD_CAT_ID": 30054, "ELEMENT_SET_NO": 999, "REV_AT_EPOCH": 94490, "BSTAR": 0.00049008719, "MEAN_MOTION_DOT": 5.16e-06, "MEAN_MOTION_DDOT": 0}, "tle": {"line1": "1 30054U 99025PF  25357.06984522  .00000516  00000+0  49009-3 0  9991", "line2": "2 30054  99.3704  29.0434 0275429 338.3880  40.0665 13.69877012944901"}}, "geometry": {"type": "Point", "coordinates": [100.82696211133096, -80.10364715070634]}}, {"type": "Feature", "properties": {"norad_id": 30056, "name": "FENGYUN 1C DEB", "group": "fengyun-1c-debris", "lat": 19.866619653406214, "lon": 178.92977009837512, "alt_km": 1192.6561794352365, "timestamp": "2025-12-23T16:57:12.625645+00:00", "meta": {"OBJECT_NAME": "FENGYUN 1C DEB", "OBJECT_ID": "1999-025PH", "EPOCH": "2025-12-23T01:07:15.893472", "MEAN_MOTION": 13.74044961, "ECCENTRICITY": 0.02991582, "INCLINATION": 98.3226, "RA_OF_ASC_NODE": 181.3859, "ARG_OF_PERICENTER": 182.9846, "MEAN_ANOMALY": 176.9531, "EPHEMERIS_TYPE": 0, "CLASSIFICATION_TYPE": "U", "NORAD_CAT_ID": 30056, "ELEMENT_SET_NO": 999, "REV_AT_EPOCH": 94117, "BSTAR": 0.0023553405, "MEAN_MOTION_DOT": 3.024e-05, "MEAN_MOTION_DDOT": 0}, "tle": {"line1": "1 30056U 99025PH  25357.04671173  .00003024  00000+0  23553-2 0  9998", "line2": "2 30056  98.3226 181.3859 0299158 182.9846 176.9531 13.74044961941176"}}, "geometry": {"type": "Point", "coordinates": [178.92977009837512, 19.866619653406214]}}, {"type": "Feature", "properties": {"norad_id": 30057, "name": "FENGYUN 1C DEB", "group": "fengyun-1c-debris", "lat": -23.87935892426739, "lon": -118.57317701607887, "alt_km": 1029.3391582007062, "timestamp": "2025-12-23T16:57:12.625655+00:00", "meta": {"OBJECT_NAME": "FENGYUN 1C DEB", "OBJECT_ID": "1999-025PJ", "EPOCH": "2025-12-23T03:44:20.689728", "MEAN_MOTION": 13.57146359, "ECCENTRICITY": 0.02919168, "INCLINATION": 98.8826, "RA_OF_ASC_NODE": 64.8986, "ARG_OF_PERICENTER": 119.6876, "MEAN_ANOMALY": 272.3956, "EPHEMERIS_TYPE": 0, "CLASSIFICATION_TYPE": "U", "NORAD_CAT_ID": 30057, "ELEMENT_SET_NO": 999, "REV_AT_EPOCH": 93377, "BSTAR": 0.0011305471, "MEAN_MOTION_DOT": 1.026e-05, "MEAN_MOTION_DDOT": 0}, "tle": {"line1": "1 30057U 99025PJ  25357.15579502  .00001026  00000+0  11305-2 0  9996", "line2": "2 30057  98.8826  64.8986 0291916 119.6876 272.3956 13.57146359933772"}}, "geometry": {"type": "Point", "coordinates": [-118.57317701607887, -23.87935892426739]}}, {"type": "Feature", "properties": {"norad_id": 30058, "name": "FENGYUN 1C DEB", "group": "fengyun-1c-debris", "lat": -77.21549941657675, "lon": 50.163803004566915, "alt_km": 1294.7750690303683, "timestamp": "2025-12-23T16:57:12.625666+00:00", "meta": {"OBJECT_NAME": "FENGYUN 1C DEB", "OBJECT_ID": "1999-025PK", "EPOCH": "2025-12-22T11:50:15.237888", "MEAN_MOTION": 13.48248394, "ECCENTRICITY": 0.03156765, "INCLINATION": 99.6497, "RA_OF_ASC_NODE": 0.4197, "ARG_OF_PERICENTER": 128.1499, "MEAN_ANOMALY": 23.3083, "EPHEMERIS_TYPE": 0, "CLASSIFICATION_TYPE": "U", "NORAD_CAT_ID": 30058, "ELEMENT_SET_NO": 999, "REV_AT_EPOCH": 92979, "BSTAR": 0.00064800713, "MEAN_MOTION_DOT": 5.04e-06, "MEAN_MOTION_DDOT": 0}, "tle": {"line1": "1 30058U 99025PK  25356.49323192  .00000504  00000+0  64801-3 0  9995", "line2": "2 30058  99.6497   0.4197 0315676 128.1499  23.3083 13.48248394929796"}}, "geometry": {"type": "Point", "coordinates": [50.163803004566915, -77.21549941657675]}}, {"type": "Feature", "properties": {"norad_id": 30059, "name": "FENGYUN 1C DEB", "group": "fengyun-1c-debris", "lat": -35.52692072653557, "lon": -1.9427204988993612, "alt_km": 931.4606470514427, "timestamp": "2025-12-23T16:57:12.625676+00:00", "meta": {"OBJECT_NAME": "FENGYUN 1C DEB", "OBJECT_ID": "1999-025PL", "EPOCH": "2025-12-21T22:26:14.487360", "MEAN_MOTION": 13.45499366, "ECCENTRICITY": 0.03264708, "INCLINATION": 98.8226, "RA_OF_ASC_NODE": 350.1303, "ARG_OF_PERICENTER": 279.3024, "MEAN_ANOMALY": 105.661, "EPHEMERIS_TYPE": 0, "CLASSIFICATION_TYPE": "U", "NORAD_CAT_ID": 30059, "ELEMENT_SET_NO": 999, "REV_AT_EPOCH": 92921, "BSTAR": 0.00028126713, "MEAN_MOTION_DOT": 1.91e-06, "MEAN_MOTION_DDOT": 0}, "tle": {"line1": "1 30059U 99025PL  25355.93488990  .00000191  00000+0  28127-3 0  9995", "line2": "2 30059  98.8226 350.1303 0326470 279.3024 105.6610 13.45499366929210"}}, "geometry": {"type": "Point", "coordinates": [-1.9427204988993612, -35.52692072653557]}}, {"type": "Feature", "properties": {"norad_id": 30060, "name": "FENGYUN 1C DEB", "group": "fengyun-1c-debris", "lat": 40.389479567911565, "lon": 51.63013278748425, "alt_km": 1103.5655793158849, "timestamp": "2025-12-23T16:57:12.625687+00:00", "meta": {"OBJECT_NAME": "FENGYUN 1C DEB", "OBJECT_ID": "1999-025PM", "EPOCH": "2025-12-23T04:22:26.730912", "MEAN_MOTION": 13.43797276, "ECCENTRICITY": 0.03458075, "INCLINATION": 99.3149, "RA_OF_ASC_NODE": 223.118, "ARG_OF_PERICENTER": 45.6093, "MEAN_ANOMALY": 74.9854, "EPHEMERIS_TYPE": 0, "CLASSIFICATION_TYPE": "U", "NORAD_CAT_ID": 30060, "ELEMENT_SET_NO": 999, "REV_AT_EPOCH": 92383, "BSTAR": 0.0024311461, "MEAN_MOTION_DOT": 1.968e-05, "MEAN_MOTION_DDOT": 0}, "tle": {"line1": "1 30060U 99025PM  25357.18225383  .00001968  00000+0  24311-2 0  9994", "line2": "2 30060  99.3149 223.1180 0345807  45.6093  74.9854 13.43797276923838"}}, "geometry": {"type": "Point", "coordinates": [51.63013278748425, 40.389479567911565]}}]}